NORAD_CAT_ID,OBJECT_NAME,OBJECT_TYPE,EPOCH,MEAN_MOTION,ECCENTRICITY,INCLINATION,RA_OF_ASC_NODE,ARG_OF_PERICENTER,MEAN_ANOMALY,BSTAR,MEAN_MOTION_DOT,MEAN_MOTION_DDOT,TLE_LINE0,TLE_LINE1,TLE_LINE2,SEMIMAJOR_AXIS,PERIOD,APOGEE,PERIGEE,DECAYED
52647.0,STARLINK-3846,PAYLOAD,2023-10-31 07:46:55,15.08839285,0.0001472,53.216,161.5586,84.4596,275.6564,6.0769e-05,6.79e-06,0.0,0 STARLINK-3846,1 52647U 22052BB  23304.32425401  .00000679  00000-0  60769-4 0  9992,2 52647  53.2160 161.5586 0001472  84.4596 275.6564 15.08839285 81255,6917.883,95.438,540.766,538.729,0.0
52647.0,STARLINK-3846,PAYLOAD,2023-10-31 20:30:00,15.08848206,0.0001531,53.2159,159.1791,96.063,264.0537,0.00023176,3.403e-05,0.0,0 STARLINK-3846,1 52647U 22052BB  23304.85417050  .00003403  00000-0  23176-3 0  9999,2 52647  53.2159 159.1791 0001531  96.0630 264.0537 15.08848206 81703,6917.855,95.437,540.779,538.661,0.0
52647.0,STARLINK-3846,PAYLOAD,2023-10-31 22:05:23,15.08848434,0.0001492,53.2154,158.8821,90.2074,269.9089,0.00032593,4.904e-05,0.0,0 STARLINK-3846,1 52647U 22052BB  23304.92041123  .00004904  00000-0  32593-3 0  9991,2 52647  53.2154 158.8821 0001492  90.2074 269.9089 15.08848434 81341,6917.855,95.437,540.752,538.687,0.0
52647.0,STARLINK-3846,PAYLOAD,2023-11-01 13:59:15,15.08841109,0.0001418,53.2139,155.9123,84.7022,275.4132,0.00013269,1.825e-05,0.0,0 STARLINK-3846,1 52647U 22052BB  23305.58281334  .00001825  00000-0  13269-3 0  9992,2 52647  53.2139 155.9123 0001418  84.7022 275.4132 15.08841109 81440,6917.877,95.437,540.723,538.761,0.0
52647.0,STARLINK-3846,PAYLOAD,2023-11-01 20:20:47,15.0884043,0.0001386,53.2158,154.72,88.2043,271.9108,0.0001297,1.777e-05,0.0,0 STARLINK-3846,1 52647U 22052BB  23305.84777503  .00001777  00000-0  12970-3 0  9993,2 52647  53.2158 154.7200 0001386  88.2043 271.9108 15.08840430 81855,6917.879,95.438,540.703,538.785,0.0
52647.0,STARLINK-3846,PAYLOAD,2023-11-02 13:50:02,15.08842055,0.0001469,53.2154,151.4482,88.1711,271.9449,6.2024e-05,6.99e-06,0.0,0 STARLINK-3846,1 52647U 22052BB  23306.57641465  .00000699  00000-0  62024-4 0  9999,2 52647  53.2154 151.4482 0001469  88.1711 271.9449 15.08842055 81594,6917.874,95.437,540.755,538.723,0.0
52647.0,STARLINK-3846,PAYLOAD,2023-11-02 20:11:34,15.08844553,0.0001412,53.2151,150.2595,86.3937,273.7217,4.1447e-05,3.72e-06,0.0,0 STARLINK-3846,1 52647U 22052BB  23306.84137307  .00000372  00000-0  41447-4 0  9998,2 52647  53.2151 150.2595 0001412  86.3937 273.7217 15.08844553 81634,6917.866,95.437,540.708,538.755,0.0
52647.0,STARLINK-3846,PAYLOAD,2023-11-03 04:08:30,15.08835874,0.0001577,53.2148,148.7724,78.9812,281.1357,-5.7246e-05,-1.199e-05,0.0,0 STARLINK-3846,1 52647U 22052BB  23307.17257711 -.00001199  00000-0 -57246-4 0  9991,2 52647  53.2148 148.7724 0001577  78.9812 281.1357 15.08835874 82058,6917.893,95.438,540.849,538.667,0.0
52647.0,STARLINK-3846,PAYLOAD,2023-11-03 13:40:49,15.08836862,0.0001407,53.2158,146.9881,87.3443,272.771,8.6633e-05,1.091e-05,0.0,0 STARLINK-3846,1 52647U 22052BB  23307.57001763  .00001091  00000-0  86633-4 0  9990,2 52647  53.2158 146.9881 0001407  87.3443 272.7710 15.08836862 81741,6917.89,95.438,540.728,538.782,0.0
52647.0,STARLINK-3846,PAYLOAD,2023-11-03 21:37:44,15.08845202,0.0001424,53.2153,145.5005,90.0222,270.0933,0.00016624,2.359e-05,0.0,0 STARLINK-3846,1 52647U 22052BB  23307.90121358  .00002359  00000-0  16624-3 0  9990,2 52647  53.2153 145.5005 0001424  90.0222 270.0933 15.08845202 81795,6917.864,95.437,540.715,538.744,0.0
52647.0,STARLINK-3846,PAYLOAD,2023-11-03 23:13:07,15.08847474,0.0001426,53.2154,145.2036,88.3191,271.7965,0.00020032,2.902e-05,0.0,0 STARLINK-3846,1 52647U 22052BB  23307.96745274  .00002902  00000-0  20032-3 0  9997,2 52647  53.2154 145.2036 0001426  88.3191 271.7965 15.08847474 82173,6917.858,95.437,540.709,538.736,0.0
52647.0,STARLINK-3846,PAYLOAD,2023-11-04 19:53:08,15.08845136,0.000144,53.2156,141.3375,87.6092,272.5065,0.00019215,2.772e-05,0.0,0 STARLINK-3846,1 52647U 22052BB  23308.82857455  .00002772  00000-0  19215-3 0  9994,2 52647  53.2156 141.3375 0001440  87.6092 272.5065 15.08845136 82304,6917.865,95.437,540.726,538.734,0.0
52647.0,STARLINK-3846,PAYLOAD,2023-11-05 11:47:00,15.08846372,0.0001446,53.2158,138.3639,87.7641,272.3517,0.00018108,2.596e-05,0.0,0 STARLINK-3846,1 52647U 22052BB  23309.49097328  .00002596  00000-0  18108-3 0  9997,2 52647  53.2158 138.3639 0001446  87.7641 272.3517 15.08846372 82035,6917.861,95.437,540.726,538.726,0.0
52647.0,STARLINK-3846,PAYLOAD,2023-11-05 19:43:55,15.08849867,0.0001312,53.2157,136.8777,87.8334,272.2808,0.00024123,3.554e-05,0.0,0 STARLINK-3846,1 52647U 22052BB  23309.82217079  .00003554  00000-0  24123-3 0  9990,2 52647  53.2157 136.8777 0001312  87.8334 272.2808 15.08849867 82081,6917.85,95.437,540.623,538.808,0.0
52647.0,STARLINK-3846,PAYLOAD,2023-11-06 11:37:46,15.08851192,0.0001282,53.215,133.9048,86.6751,273.4388,0.00021847,3.192e-05,0.0,0 STARLINK-3846,1 52647U 22052BB  23310.48456709  .00003192  00000-0  21847-3 0  9997,2 52647  53.2150 133.9048 0001282  86.6751 273.4388 15.08851192 82551,6917.846,95.437,540.598,538.824,0.0
52647.0,STARLINK-3846,PAYLOAD,2023-11-06 19:34:42,15.08851267,0.0001266,53.2148,132.4177,91.3197,268.794,0.00015321,2.152e-05,0.0,0 STARLINK-3846,1 52647U 22052BB  23310.81576459  .00002152  00000-0  15321-3 0  9994,2 52647  53.2148 132.4177 0001266  91.3197 268.7940 15.08851267 82233,6917.846,95.437,540.587,538.835,0.0
52647.0,STARLINK-3846,PAYLOAD,2023-11-07 05:07:01,15.08842801,0.0001184,53.215,130.6331,85.1955,274.9172,-1.1821e-05,-4.76e-06,0.0,0 STARLINK-3846,1 52647U 22052BB  23311.21320654 -.00000476  00000-0 -11821-4 0  9994,2 52647  53.2150 130.6331 0001184  85.1955 274.9172 15.08842801 82667,6917.872,95.437,540.556,538.918,0.0
52647.0,STARLINK-3846,PAYLOAD,2023-11-07 19:25:30,15.08826988,0.0001671,53.2166,127.9546,77.677,282.4409,-0.00022141,-3.809e-05,0.0,0 STARLINK-3846,1 52647U 22052BB  23311.80937954 -.00003809  00000-0 -22141-3 0  9995,2 52647  53.2166 127.9546 0001671  77.6770 282.4409 15.08826988 82758,6917.92,95.438,540.941,538.629,0.0
52647.0,STARLINK-3846,PAYLOAD,2023-11-08 19:16:17,15.08837762,0.0001402,53.215,123.4958,84.8259,275.2893,8.2207e-05,1.021e-05,0.0,0 STARLINK-3846,1 52647U 22052BB  23312.80297945  .00001021  00000-0  82207-4 0  9997,2 52647  53.2150 123.4958 0001402  84.8259 275.2893 15.08837762 82909,6917.887,95.438,540.722,538.782,0.0
52647.0,STARLINK-3846,PAYLOAD,2023-11-09 11:10:09,15.08826297,0.0001556,53.2159,120.5209,82.315,277.8019,0.00017755,2.538e-05,0.0,0 STARLINK-3846,1 52647U 22052BB  23313.46539212  .00002538  00000-0  17755-3 0  9995,2 52647  53.2159 120.5209 0001556  82.3150 277.8019 15.08826297 83009,6917.922,95.438,540.864,538.711,0.0
52647.0,STARLINK-3846,PAYLOAD,2023-11-09 17:31:43,15.08814284,0.00015,53.2151,119.3322,92.8591,267.2573,0.0004478,6.841e-05,0.0,0 STARLINK-3846,1 52647U 22052BB  23313.73035925  .00006841  00000-0  44780-3 0  9996,2 52647  53.2151 119.3322 0001500  92.8591 267.2573 15.08814284 83042,6917.959,95.439,540.862,538.786,0.0
52647.0,STARLINK-3846,PAYLOAD,2023-11-10 11:00:57,15.08817537,0.0001434,53.218,116.061,87.5466,272.569,0.00043028,6.562e-05,0.0,0 STARLINK-3846,1 52647U 22052BB  23314.45899403  .00006562  00000-0  43028-3 0  9999,2 52647  53.2180 116.0610 0001434  87.5466 272.5690 15.08817537 83151,6917.949,95.439,540.806,538.822,0.0
52647.0,STARLINK-3846,PAYLOAD,2023-11-10 14:11:42,15.08841906,0.0001538,53.2173,115.4669,77.8487,282.2677,0.00015956,2.252e-05,0.0,0 STARLINK-3846,1 52647U 22052BB  23314.59146899  .00002252  00000-0  15956-3 0  9999,2 52647  53.2173 115.4669 0001538  77.8487 282.2677 15.08841906 82801,6917.875,95.437,540.804,538.676,0.0
52647.0,STARLINK-3846,PAYLOAD,2023-11-10 17:22:29,15.0884469,0.0001528,53.2152,114.8715,87.7449,272.3718,0.00023262,3.417e-05,0.0,0 STARLINK-3846,1 52647U 22052BB  23314.72394958  .00003417  00000-0  23262-3 0  9998,2 52647  53.2152 114.8715 0001528  87.7449 272.3718 15.08844690 83192,6917.866,95.437,540.788,538.674,0.0
52647.0,STARLINK-3846,PAYLOAD,2023-11-11 14:02:29,15.08849714,0.0001546,53.2156,111.0053,88.5558,271.5611,0.00028401,4.236e-05,0.0,0 STARLINK-3846,1 52647U 22052BB  23315.58506575  .00004236  00000-0  28401-3 0  9993,2 52647  53.2156 111.0053 0001546  88.5558 271.5611 15.08849714 82958,6917.851,95.437,540.785,538.646,0.0
52647.0,STARLINK-3846,PAYLOAD,2023-11-11 17:13:15,15.08853504,0.0001535,53.2157,110.4105,88.7321,271.3847,0.00032866,4.948e-05,0.0,0 STARLINK-3846,1 52647U 22052BB  23315.71754372  .00004948  00000-0  32866-3 0  9998,2 52647  53.2157 110.4105 0001535  88.7321 271.3847 15.08853504 82971,6917.839,95.437,540.766,538.642,0.0
52647.0,STARLINK-3846,PAYLOAD,2023-11-12 10:42:30,15.08842296,0.0001572,53.2154,107.1396,89.7797,270.3375,1.9651e-06,-2.57e-06,0.0,0 STARLINK-3846,1 52647U 22052BB  23316.44618604 -.00000257  00000-0  19651-5 0  9995,2 52647  53.2154 107.1396 0001572  89.7797 270.3375 15.08842296 83457,6917.873,95.437,540.826,538.651,0.0
52647.0,STARLINK-3846,PAYLOAD,2023-11-12 13:53:16,15.08843661,0.0001573,53.2155,106.5449,89.6991,270.4182,1.5244e-05,-4.5e-07,0.0,0 STARLINK-3846,1 52647U 22052BB  23316.57866488 -.00000045  00000-0  15244-4 0  9992,2 52647  53.2155 106.5449 0001573  89.6991 270.4182 15.08843661 83102,6917.869,95.437,540.822,538.646,0.0
52647.0,STARLINK-3846,PAYLOAD,2023-11-12 15:28:39,15.08843742,0.000157,53.2156,106.2475,89.577,270.5402,1.2756e-05,-8.5e-07,0.0,0 STARLINK-3846,1 52647U 22052BB  23316.64490449 -.00000085  00000-0  12756-4 0  9999,2 52647  53.2156 106.2475 0001570  89.5770 270.5402 15.08843742 83117,6917.869,95.437,540.82,538.648,0.0
52647.0,STARLINK-3846,PAYLOAD,2023-11-13 10:33:17,15.08848796,0.0001512,53.2174,102.6781,84.8852,275.2312,1.9188e-05,1.7e-07,0.0,0 STARLINK-3846,1 52647U 22052BB  23317.43978201  .00000017  00000-0  19188-4 0  9994,2 52647  53.2174 102.6781 0001512  84.8852 275.2312 15.08848796 83231,6917.854,95.437,540.764,538.673,0.0
